{
    "links": {
        "self": "http://www.neowsapp.com/rest/v1/neo/3798967?api_key=iIulBulltgU6a56xZRHN4H3l9WmuAYTsLGpBGhQ2"
    },
    "id": "3798967",
    "neo_reference_id": "3798967",
    "name": "(2018 BD6)",
    "designation": "2018 BD6",
    "nasa_jpl_url": "http://ssd.jpl.nasa.gov/sbdb.cgi?sstr=3798967",
    "absolute_magnitude_h": 20.8,
    "estimated_diameter": {
        "kilometers": {
            "estimated_diameter_min": 0.1838886721,
            "estimated_diameter_max": 0.411187571
        },
        "meters": {
            "estimated_diameter_min": 183.8886720703,
            "estimated_diameter_max": 411.1875710413
        },
        "miles": {
            "estimated_diameter_min": 0.1142630881,
            "estimated_diameter_max": 0.2555000322
        },
        "feet": {
            "estimated_diameter_min": 603.309310875,
            "estimated_diameter_max": 1349.040630575
        }
    },
    "is_potentially_hazardous_asteroid": false,
    "close_approach_data": [
        {
            "close_approach_date": "2018-01-20",
            "close_approach_date_full": "2018-Jan-20 04:28",
            "epoch_date_close_approach": 1516422480000,
            "relative_velocity": {
                "kilometers_per_second": "28.5889212778",
                "kilometers_per_hour": "102920.1165999058",
                "miles_per_hour": "63950.5580062026"
            },
            "miss_distance": {
                "astronomical": "0.2665525881",
                "lunar": "103.6889567709",
                "kilometers": "39875699.422747347",
                "miles": "24777610.6682215086"
            },
            "orbiting_body": "Earth"
        }
    ],
    "orbital_data": {
        "orbit_id": "5",
        "orbit_determination_date": "2018-03-01 06:20:27",
        "first_observation_date": "2018-01-24",
        "last_observation_date": "2018-02-27",
        "data_arc_in_days": 34,
        "observations_used": 52,
        "orbit_uncertainty": "7",
        "minimum_orbit_intersection": ".0521299",
        "jupiter_tisserand_invariant": "2.883",
        "epoch_osculation": "2459000.5",
        "eccentricity": ".573671525557643",
        "semi_major_axis": "2.423085665203427",
        "inclination": "48.84744672667347",
        "ascending_node_longitude": "130.740710258657",
        "orbital_period": "1377.690232593488",
        "perihelion_distance": "1.033030415089321",
        "perihelion_argument": "351.2478755510054",
        "aphelion_distance": "3.813140915317533",
        "perihelion_time": "2459505.301205398167",
        "mean_anomaly": "228.0919486514481",
        "mean_motion": ".2613069262473492",
        "equinox": "J2000",
        "orbit_class": {
            "orbit_class_type": "AMO",
            "orbit_class_description": "Near-Earth asteroid orbits similar to that of 1221 Amor",
            "orbit_class_range": "1.017 AU < q (perihelion) < 1.3 AU"
        }
    },
    "is_sentry_object": false
}